CCSDS_OMM_VERS = 2.0
CREATION_DATE  = 
ORIGINATOR     = 

OBJECT_NAME    = UNKNOWN
OBJECT_ID      = 
CENTER_NAME    = EARTH
REF_FRAME      = TEME
TIME_SYSTEM    = UTC
MEAN_ELEMENT_THEORY = SGP/SGP4

EPOCH          = 2026-01-23T18:56:52.025856
MEAN_MOTION    = 14.35448594
ECCENTRICITY   = .0359119
INCLINATION    = 65.6721
RA_OF_ASC_NODE = 46.6555
ARG_OF_PERICENTER = 54.5448
MEAN_ANOMALY   = 121.7401

EPHEMERIS_TYPE = 0
CLASSIFICATION_TYPE = U
NORAD_CAT_ID   = 87764
ELEMENT_SET_NO = 999
REV_AT_EPOCH   = 62515
BSTAR          = .18548E-2
MEAN_MOTION_DOT = .11092E-3
MEAN_MOTION_DDOT = 0

CCSDS_OMM_VERS = 2.0
CREATION_DATE  = 
ORIGINATOR     = 

OBJECT_NAME    = UNKNOWN
OBJECT_ID      = 
CENTER_NAME    = EARTH
REF_FRAME      = TEME
TIME_SYSTEM    = UTC
MEAN_ELEMENT_THEORY = SGP/SGP4

EPOCH          = 2026-01-21T11:53:14.421120
MEAN_MOTION    = 13.19529114
ECCENTRICITY   = .0119551
INCLINATION    = 100.7424
RA_OF_ASC_NODE = 223.5243
ARG_OF_PERICENTER = 272.3011
MEAN_ANOMALY   = 86.4418

EPHEMERIS_TYPE = 0
CLASSIFICATION_TYPE = U
NORAD_CAT_ID   = 87771
ELEMENT_SET_NO = 999
REV_AT_EPOCH   = 54033
BSTAR          = .41172E-3
MEAN_MOTION_DOT = .123E-5
MEAN_MOTION_DDOT = 0

CCSDS_OMM_VERS = 2.0
CREATION_DATE  = 
ORIGINATOR     = 

OBJECT_NAME    = UNKNOWN
OBJECT_ID      = 
CENTER_NAME    = EARTH
REF_FRAME      = TEME
TIME_SYSTEM    = UTC
MEAN_ELEMENT_THEORY = SGP/SGP4

EPOCH          = 2026-01-22T09:11:59.978112
MEAN_MOTION    = 13.00626311
ECCENTRICITY   = .0028054
INCLINATION    = 102.3497
RA_OF_ASC_NODE = 264.3600
ARG_OF_PERICENTER = 138.9089
MEAN_ANOMALY   = 221.4127

EPHEMERIS_TYPE = 0
CLASSIFICATION_TYPE = U
NORAD_CAT_ID   = 87782
ELEMENT_SET_NO = 999
REV_AT_EPOCH   = 57327
BSTAR          = .12965E-1
MEAN_MOTION_DOT = .3892E-4
MEAN_MOTION_DDOT = 0

CCSDS_OMM_VERS = 2.0
CREATION_DATE  = 
ORIGINATOR     = 

OBJECT_NAME    = UNKNOWN
OBJECT_ID      = 
CENTER_NAME    = EARTH
REF_FRAME      = TEME
TIME_SYSTEM    = UTC
MEAN_ELEMENT_THEORY = SGP/SGP4

EPOCH          = 2026-01-17T13:18:15.077088
MEAN_MOTION    = 13.16710998
ECCENTRICITY   = .0239483
INCLINATION    = 99.6612
RA_OF_ASC_NODE = 133.6907
ARG_OF_PERICENTER = 279.1280
MEAN_ANOMALY   = 78.2814

EPHEMERIS_TYPE = 0
CLASSIFICATION_TYPE = U
NORAD_CAT_ID   = 87843
ELEMENT_SET_NO = 999
REV_AT_EPOCH   = 56887
BSTAR          = .50445E-2
MEAN_MOTION_DOT = .2198E-4
MEAN_MOTION_DDOT = 0

CCSDS_OMM_VERS = 2.0
CREATION_DATE  = 
ORIGINATOR     = 

OBJECT_NAME    = UNKNOWN
OBJECT_ID      = 
CENTER_NAME    = EARTH
REF_FRAME      = TEME
TIME_SYSTEM    = UTC
MEAN_ELEMENT_THEORY = SGP/SGP4

EPOCH          = 2026-01-19T15:28:34.655520
MEAN_MOTION    = 12.89015426
ECCENTRICITY   = .0576498
INCLINATION    = 98.8627
RA_OF_ASC_NODE = 334.7183
ARG_OF_PERICENTER = 166.2889
MEAN_ANOMALY   = 195.4648

EPHEMERIS_TYPE = 0
CLASSIFICATION_TYPE = U
NORAD_CAT_ID   = 87845
ELEMENT_SET_NO = 999
REV_AT_EPOCH   = 57009
BSTAR          = .28395E-2
MEAN_MOTION_DOT = .1498E-4
MEAN_MOTION_DDOT = 0

CCSDS_OMM_VERS = 2.0
CREATION_DATE  = 
ORIGINATOR     = 

OBJECT_NAME    = UNKNOWN
OBJECT_ID      = 
CENTER_NAME    = EARTH
REF_FRAME      = TEME
TIME_SYSTEM    = UTC
MEAN_ELEMENT_THEORY = SGP/SGP4

EPOCH          = 2026-01-23T03:54:13.287456
MEAN_MOTION    = 14.41117817
ECCENTRICITY   = .0036284
INCLINATION    = 99.1570
RA_OF_ASC_NODE = 150.5705
ARG_OF_PERICENTER = 145.2222
MEAN_ANOMALY   = 215.1347

EPHEMERIS_TYPE = 0
CLASSIFICATION_TYPE = U
NORAD_CAT_ID   = 87878
ELEMENT_SET_NO = 999
REV_AT_EPOCH   = 61726
BSTAR          = .17759E-2
MEAN_MOTION_DOT = .5722E-4
MEAN_MOTION_DDOT = 0

CCSDS_OMM_VERS = 2.0
CREATION_DATE  = 
ORIGINATOR     = 

OBJECT_NAME    = UNKNOWN
OBJECT_ID      = 
CENTER_NAME    = EARTH
REF_FRAME      = TEME
TIME_SYSTEM    = UTC
MEAN_ELEMENT_THEORY = SGP/SGP4

EPOCH          = 2026-01-20T13:44:38.628384
MEAN_MOTION    = 14.06011248
ECCENTRICITY   = .0153115
INCLINATION    = 98.7330
RA_OF_ASC_NODE = 128.0580
ARG_OF_PERICENTER = 319.2583
MEAN_ANOMALY   = 39.7214

EPHEMERIS_TYPE = 0
CLASSIFICATION_TYPE = U
NORAD_CAT_ID   = 87884
ELEMENT_SET_NO = 999
REV_AT_EPOCH   = 62382
BSTAR          = .34379E-3
MEAN_MOTION_DOT = .583E-5
MEAN_MOTION_DDOT = 0

CCSDS_OMM_VERS = 2.0
CREATION_DATE  = 
ORIGINATOR     = 

OBJECT_NAME    = UNKNOWN
OBJECT_ID      = 
CENTER_NAME    = EARTH
REF_FRAME      = TEME
TIME_SYSTEM    = UTC
MEAN_ELEMENT_THEORY = SGP/SGP4

EPOCH          = 2026-01-22T10:55:11.589600
MEAN_MOTION    = 12.35313496
ECCENTRICITY   = .0889515
INCLINATION    = 28.6372
RA_OF_ASC_NODE = 89.0987
ARG_OF_PERICENTER = 316.6629
MEAN_ANOMALY   = 36.7178

EPHEMERIS_TYPE = 0
CLASSIFICATION_TYPE = U
NORAD_CAT_ID   = 87991
ELEMENT_SET_NO = 999
REV_AT_EPOCH   = 52803
BSTAR          = .68757E-2
MEAN_MOTION_DOT = .3482E-4
MEAN_MOTION_DDOT = 0

CCSDS_OMM_VERS = 2.0
CREATION_DATE  = 
ORIGINATOR     = 

OBJECT_NAME    = UNKNOWN
OBJECT_ID      = 
CENTER_NAME    = EARTH
REF_FRAME      = TEME
TIME_SYSTEM    = UTC
MEAN_ELEMENT_THEORY = SGP/SGP4

EPOCH          = 2025-12-27T07:00:25.997184
MEAN_MOTION    = 14.11712008
ECCENTRICITY   = .0026225
INCLINATION    = 98.5977
RA_OF_ASC_NODE = 6.3824
ARG_OF_PERICENTER = 201.8740
MEAN_ANOMALY   = 158.1315

EPHEMERIS_TYPE = 0
CLASSIFICATION_TYPE = U
NORAD_CAT_ID   = 87998
ELEMENT_SET_NO = 999
REV_AT_EPOCH   = 55095
BSTAR          = .57494E-3
MEAN_MOTION_DOT = .1008E-4
MEAN_MOTION_DDOT = 0

CCSDS_OMM_VERS = 2.0
CREATION_DATE  = 
ORIGINATOR     = 

OBJECT_NAME    = UNKNOWN
OBJECT_ID      = 
CENTER_NAME    = EARTH
REF_FRAME      = TEME
TIME_SYSTEM    = UTC
MEAN_ELEMENT_THEORY = SGP/SGP4

EPOCH          = 2026-01-23T11:28:40.038816
MEAN_MOTION    = 14.45838566
ECCENTRICITY   = .0190034
INCLINATION    = 97.8395
RA_OF_ASC_NODE = 214.4995
ARG_OF_PERICENTER = 263.1345
MEAN_ANOMALY   = 94.8197

EPHEMERIS_TYPE = 0
CLASSIFICATION_TYPE = U
NORAD_CAT_ID   = 89005
ELEMENT_SET_NO = 999
REV_AT_EPOCH   = 54012
BSTAR          = .12031E-2
MEAN_MOTION_DOT = .5297E-4
MEAN_MOTION_DDOT = 0

CCSDS_OMM_VERS = 2.0
CREATION_DATE  = 
ORIGINATOR     = 

OBJECT_NAME    = UNKNOWN
OBJECT_ID      = 
CENTER_NAME    = EARTH
REF_FRAME      = TEME
TIME_SYSTEM    = UTC
MEAN_ELEMENT_THEORY = SGP/SGP4

EPOCH          = 2026-01-23T00:10:15.744288
MEAN_MOTION    = 14.95003228
ECCENTRICITY   = .0021969
INCLINATION    = 98.0480
RA_OF_ASC_NODE = 288.3126
ARG_OF_PERICENTER = 184.0538
MEAN_ANOMALY   = 176.0507

EPHEMERIS_TYPE = 0
CLASSIFICATION_TYPE = U
NORAD_CAT_ID   = 89029
ELEMENT_SET_NO = 999
REV_AT_EPOCH   = 65724
BSTAR          = .68031E-3
MEAN_MOTION_DOT = .7417E-4
MEAN_MOTION_DDOT = 0

CCSDS_OMM_VERS = 2.0
CREATION_DATE  = 
ORIGINATOR     = 

OBJECT_NAME    = UNKNOWN
OBJECT_ID      = 
CENTER_NAME    = EARTH
REF_FRAME      = TEME
TIME_SYSTEM    = UTC
MEAN_ELEMENT_THEORY = SGP/SGP4

EPOCH          = 2026-01-17T14:51:12.881376
MEAN_MOTION    = 13.04018734
ECCENTRICITY   = .0147999
INCLINATION    = 100.4673
RA_OF_ASC_NODE = 318.1881
ARG_OF_PERICENTER = 28.0227
MEAN_ANOMALY   = 332.8750

EPHEMERIS_TYPE = 0
CLASSIFICATION_TYPE = U
NORAD_CAT_ID   = 89101
ELEMENT_SET_NO = 999
REV_AT_EPOCH   = 55952
BSTAR          = -.78501E-3
MEAN_MOTION_DOT = -.307E-5
MEAN_MOTION_DDOT = 0

