UNKNOWN                 
1 87764U          26023.78949104  .00011092  00000+0  18548-2 0  9997
2 87764  65.6721  46.6555 0359119  54.5448 121.7401 14.35448594625152
UNKNOWN                 
1 87771U          26021.49530580  .00000123  00000+0  41172-3 0  9998
2 87771 100.7424 223.5243 0119551 272.3011  86.4418 13.19529114540331
UNKNOWN                 
1 87782U          26022.38333308  .00003892  00000+0  12965-1 0  9990
2 87782 102.3497 264.3600 0028054 138.9089 221.4127 13.00626311573274
UNKNOWN                 
1 87843U          26017.55434117  .00002198  00000+0  50445-2 0  9995
2 87843  99.6612 133.6907 0239483 279.1280  78.2814 13.16710998568871
UNKNOWN                 
1 87845U          26019.64484555  .00001498  00000+0  28395-2 0  9991
2 87845  98.8627 334.7183 0576498 166.2889 195.4648 12.89015426570098
UNKNOWN                 
1 87878U          26023.16265379  .00005722  00000+0  17759-2 0  9996
2 87878  99.1570 150.5705 0036284 145.2222 215.1347 14.41117817617265
UNKNOWN                 
1 87884U          26020.57266931  .00000583  00000+0  34379-3 0  9998
2 87884  98.7330 128.0580 0153115 319.2583  39.7214 14.06011248623822
UNKNOWN                 
1 87991U          26022.45499525  .00003482  00000+0  68757-2 0  9990
2 87991  28.6372  89.0987 0889515 316.6629  36.7178 12.35313496528031
UNKNOWN                 
1 87998U          25361.29196756  .00001008  00000+0  57494-3 0  9993
2 87998  98.5977   6.3824 0026225 201.8740 158.1315 14.11712008550953
UNKNOWN                 
1 89005U          26023.47824119  .00005297  00000+0  12031-2 0  9992
2 89005  97.8395 214.4995 0190034 263.1345  94.8197 14.45838566540120
UNKNOWN                 
1 89029U          26023.00712667  .00007417  00000+0  68031-3 0  9999
2 89029  98.0480 288.3126 0021969 184.0538 176.0507 14.95003228657249
UNKNOWN                 
1 89101U          26017.61889909 -.00000307  00000+0 -78501-3 0  9990
2 89101 100.4673 318.1881 0147999  28.0227 332.8750 13.04018734559527
